[{"OBJECT_NAME":"STARLINK-4576","OBJECT_ID":"2022-101AR","EPOCH":"2026-03-09T06:44:30.477984","MEAN_MOTION":15.08840979,"ECCENTRICITY":0.00015019,"INCLINATION":53.2191,"RA_OF_ASC_NODE":55.9433,"ARG_OF_PERICENTER":90.7468,"MEAN_ANOMALY":269.3696,"EPHEMERIS_TYPE":0,"CLASSIFICATION_TYPE":"U","NORAD_CAT_ID":53566,"ELEMENT_SET_NO":999,"REV_AT_EPOCH":19707,"BSTAR":-2.7689918e-5,"MEAN_MOTION_DOT":-7.29e-6,"MEAN_MOTION_DDOT":0},{"OBJECT_NAME":"OBJECT A","OBJECT_ID":"2024-110A","EPOCH":"2026-03-09T23:09:02.134656","MEAN_MOTION":15.1192128,"ECCENTRICITY":0.0007919,"INCLINATION":97.5675,"RA_OF_ASC_NODE":161.4531,"ARG_OF_PERICENTER":228.7681,"MEAN_ANOMALY":131.2868,"EPHEMERIS_TYPE":0,"CLASSIFICATION_TYPE":"U","NORAD_CAT_ID":60012,"ELEMENT_SET_NO":999,"REV_AT_EPOCH":9691,"BSTAR":0.00051932581,"MEAN_MOTION_DOT":8.842e-5,"MEAN_MOTION_DDOT":0}]
